OBJECT_NAME,OBJECT_ID,EPOCH,MEAN_MOTION,ECCENTRICITY,INCLINATION,RA_OF_ASC_NODE,ARG_OF_PERICENTER,MEAN_ANOMALY,EPHEMERIS_TYPE,CLASSIFICATION_TYPE,NORAD_CAT_ID,ELEMENT_SET_NO,REV_AT_EPOCH,BSTAR,MEAN_MOTION_DOT,MEAN_MOTION_DDOT
ONEWEB-0130,2020-100U,2026-07-20T21:16:50.692512,13.12443323,.00019543,87.8980,343.9539,98.7884,261.3466,0,U,47276,999,26906,-.13347891E-2,-.467E-5,0
ONEWEB-0131,2020-100V,2026-07-20T21:11:58.239744,13.12442783,.00018948,87.8967,343.9690,102.6912,257.4429,0,U,47277,999,26910,-.13233875E-2,-.463E-5,0
ONEWEB-0132,2020-100W,2026-07-20T21:53:26.663424,13.12443370,.0001857,87.8969,343.9663,99.5084,260.6255,0,U,47278,999,26900,.7718847E-3,.29E-5,0
ONEWEB-0133,2020-100X,2026-07-20T22:17:37.638240,13.12443289,.00018054,87.8985,343.9425,99.9137,260.2196,0,U,47279,999,26916,.12607475E-2,.466E-5,0
ONEWEB-0134,2020-100Y,2026-07-20T21:33:55.428480,13.12443462,.00020995,87.8981,343.9460,101.4792,258.6572,0,U,47280,999,26913,-.57341964E-3,-.194E-5,0
ONEWEB-0135,2020-100Z,2026-07-20T20:52:26.518368,13.12442409,.00020389,87.8968,343.9698,104.0535,256.0820,0,U,47281,999,26915,-.25069175E-3,-.77E-6,0
ONEWEB-0136,2020-100AA,2026-07-20T21:19:16.686912,13.12443154,.00021523,87.8977,343.9505,101.7336,258.4034,0,U,47282,999,26908,-.10433234E-2,-.363E-5,0
ONEWEB-0137,2020-100AB,2026-07-20T22:08:04.531488,13.12443464,.00017903,87.8986,343.9550,94.6529,265.4804,0,U,47283,999,26899,.11987152E-2,.444E-5,0
ONEWEB-0138,2020-100AC,2026-07-20T21:36:21.908448,13.12443945,.00020746,87.8976,343.9641,98.8432,261.2931,0,U,47284,999,26907,-.39325114E-3,-.129E-5,0
ONEWEB-0139,2020-100AD,2026-07-20T20:45:20.726208,13.12441409,.00019105,87.8978,343.9566,95.6641,264.4705,0,U,47285,999,26914,.2982584E-5,.14E-6,0
ONEWEB-0140,2020-100AE,2026-07-20T21:29:02.501376,13.12443563,.00018021,87.8980,343.9425,102.5353,257.5978,0,U,47286,999,26911,-.81279358E-3,-.28E-5,0
ONEWEB-0141,2020-100AF,2026-07-20T20:44:55.397184,13.12441803,.00017604,87.8979,343.9533,87.8286,272.3044,0,U,47287,999,26909,.56599835E-3,.216E-5,0
ONEWEB-0142,2020-100AG,2026-07-20T22:18:01.942560,13.12443826,.00021023,87.8973,343.9599,87.6793,272.4576,0,U,47288,999,26909,.10367731E-2,.386E-5,0
ONEWEB-0143,2020-100AH,2026-07-20T20:42:41.372640,13.12442153,.00018285,87.8974,343.9727,95.4413,264.6924,0,U,47289,999,26906,.346399E-3,.137E-5,0
ONEWEB-0144,2020-100AJ,2026-07-20T21:51:00.599040,13.12443217,.00022314,87.8983,343.9398,95.8718,264.2665,0,U,47290,999,26899,.56856906E-3,.217E-5,0
ONEWEB-0145,2020-100AK,2026-07-20T21:09:31.235328,13.12442753,.00019438,87.8971,343.9693,95.9936,264.1414,0,U,47291,999,26918,-.12331354E-2,-.431E-5,0
ONEWEB-0146,2020-100AL,2026-07-20T21:04:38.599392,13.12442460,.00015935,87.8979,343.9641,104.7941,255.3364,0,U,47292,999,26909,-.10391812E-2,-.361E-5,0
ONEWEB-0147,2020-100AM,2026-07-20T22:05:38.538816,13.12443302,.00019278,87.8979,343.9382,101.7252,258.4093,0,U,47293,999,26899,.99180402E-3,.37E-5,0
ONEWEB-0115,2021-025A,2026-07-20T20:18:35.477280,13.13467572,.00018707,87.8983,313.5266,103.0558,257.0780,0,U,48042,999,25801,.26729307E-2,.989E-5,0
ONEWEB-0152,2021-025B,2026-07-20T20:38:01.400352,13.13472775,.0001894,87.8993,313.5226,103.2392,256.8948,0,U,48043,999,25797,-.3235042E-3,-.105E-5,0
ONEWEB-0153,2021-025C,2026-07-20T20:06:21.549888,13.13469870,.00020137,87.8980,313.5271,98.8025,261.3332,0,U,48044,999,25796,.83392309E-3,.317E-5,0
ONEWEB-0154,2021-025D,2026-07-20T20:01:29.007264,13.13470188,.00020241,87.8987,313.5276,105.5173,254.6180,0,U,48045,999,25792,.73624115E-3,.282E-5,0
ONEWEB-0116,2021-025E,2026-07-20T20:57:32.434848,13.13469772,.00018511,87.8989,313.5171,103.6786,256.4549,0,U,48046,999,25807,-.8821404E-3,-.309E-5,0
ONEWEB-0150,2021-025F,2026-07-20T20:23:25.708704,13.13469394,.00018429,87.8991,313.5190,94.5105,265.6235,0,U,48047,999,25796,.61020084E-3,.236E-5,0
ONEWEB-0107,2021-025G,2026-07-20T20:25:51.061152,13.13471832,.00020742,87.8991,313.5145,95.7005,264.4360,0,U,48048,999,25794,.48220361E-3,.189E-5,0
ONEWEB-0101,2021-025H,2026-07-20T19:32:13.203744,13.13471750,.00021053,87.8977,313.5344,101.8141,258.3225,0,U,48049,999,25791,-.58982545E-3,-.203E-5,0
ONEWEB-0113,2021-025J,2026-07-20T19:51:45.224928,13.13891066,.00018618,87.8982,313.4387,96.3401,263.7941,0,U,48050,999,25802,.36824896E-3,.148E-5,0
ONEWEB-0112,2021-025K,2026-07-20T20:33:10.609920,13.13468917,.0002215,87.8990,313.5120,100.6174,259.5204,0,U,48051,999,25801,-.12982218E-4,.8E-7,0
ONEWEB-0156,2021-025L,2026-07-20T20:45:20.284704,13.13468979,.00019599,87.8989,313.5200,96.2014,263.9338,0,U,48052,999,25799,-.11713356E-2,-.415E-5,0
ONEWEB-0161,2021-025M,2026-07-20T20:08:47.083776,13.13473248,.00020511,87.8988,313.5260,94.8362,265.3001,0,U,48053,999,25792,.99640679E-3,.377E-5,0
